CUTE-1 (CO-55)          
1 27844U 03031E   24263.56847499  .00001032  00000+0  47335-3 0  9991
2 27844  98.6801 269.3039 0008759 225.6989 134.3471 14.23474312101210
CUBESAT XI-IV (CO-57)   
1 27848U 03031J   24263.82183281  .00000891  00000+0  41573-3 0  9996
2 27848  98.6832 269.7436 0008469 243.3805 116.6506 14.22886038100992
MOZHAYETS 4 (RS-22)     
1 27939U 03042A   24264.24096532  .00003478  00000+0  57927-3 0  9992
2 27939  98.3032  62.0480 0012679 118.3554  55.4529 14.70640647122249
IRS-P6 (RESOURCESAT-1)  
1 28051U 03046A   24264.17510486  .00000877  00000+0  31051-3 0  9993
2 28051  98.2841 317.7932 0065941  85.3843   7.9641 14.35637251 89425
SAUDISAT 2              
1 28371U 04025F   24263.84265489  .00001228  00000+0  29060-3 0  9997
2 28371  98.4948 238.5262 0026515  88.5609 271.8625 14.55719597 73316
COSMOS 2407             
1 28380U 04028A   24263.54582003  .00000136  00000+0  12347-3 0  9998
2 28380  82.9643 185.5398 0037978 229.0418 304.2240 13.76235740 12448
COSMOS 2414             
1 28521U 05002A   24263.45535520  .00000178  00000+0  13660-3 0  9995
2 28521  82.9531 164.4600 0039943 344.2983  15.6938 13.87806169995666
INMARSAT 4-F1           
1 28628U 05009A   24263.70057292  .00000027  00000+0  00000+0 0  9996
2 28628   4.3787  41.4205 0002690 171.9472 216.0423  1.00272024 71308
HAMSAT (VO-52)          
1 28650U 05017B   24263.72866722  .00011199  00000+0  90947-3 0  9993
2 28650  97.9965 252.4508 0020342  16.6125 343.5760 14.99635243 51152
NOAA 18                 
1 28654U 05018A   24264.21771974  .00000551  00000+0  31687-3 0  9993
2 28654  98.8683 340.3724 0014852 150.8720 209.3283 14.13334320996684
SJ-7                    
1 28737U 05024A   24263.58057803  .00012843  00000+0  84451-3 0  9993
2 28737  97.7693 269.7491 0022831  63.0254 297.3301 15.07503748 51779
CUBESAT XI-V            
1 28895U 05043F   24263.36515714  .00004161  00000+0  72350-3 0  9994
2 28895  98.2152  39.4413 0016039  62.2218 298.0611 14.68593625  8278
CLOUDSAT                
1 29107U 06016A   24263.78846989  .00004280  00000+0  53036-3 0  9991
2 29107  98.4166 254.3072 0004569 206.5866 153.5112 14.83261669980185
CALIPSO                 
1 29108U 06016B   24263.88393847  .00004095  00000+0  74848-3 0  9991
2 29108  98.4279 248.1820 0002085  93.0869 267.0572 14.66466473979827
HINODE (SOLAR-B)        
1 29479U 06041A   24263.76697325  .00002081  00000+0  38009-3 0  9997
2 29479  98.0880 277.7938 0019004 138.4817 221.7834 14.66882511961640
METOP-A                 
1 29499U 06044A   24263.88503397  .00003916  00000+0  49086-3 0  9995
2 29499  98.3499 341.5106 0184829 289.5763 178.3791 14.71500081934705
SHIJIAN-6 02B (SJ-6 02B)
1 29506U 06046B   24264.18958131  .00002729  00000+0  23613-3 0  9999
2 29506  97.7339 288.2133 0001900  19.6839 340.4456 14.98002241975553
DMSP 5D-3 F17 (USA 191) 
1 29522U 06050A   24264.18342873  .00000502  00000+0  28366-3 0  9999
2 29522  98.7460 272.8096 0011223  71.4755 288.7637 14.14577025922626
LAPAN-TUBSAT            
1 29709U 07001A   24264.20415099  .00001940  00000+0  23728-3 0  9991
2 29709  98.0801 240.5440 0014105  91.9526 268.3303 14.84365986956905
HAIYANG-1B              
1 31113U 07010A   24263.58354379  .00000379  00000+0  16052-3 0  9993
2 31113  98.3010 261.3275 0012362 288.3160  71.6678 14.30691472909730
BEIDOU-2 M1             
1 31115U 07011A   24263.37331395  .00000012  00000+0  00000+0 0  9992
2 31115  51.2013 240.4098 0002216 326.4339  33.5145  1.77348908 64876
CAPE-1                  
1 31130U 07012P   24263.85283121  .00004011  00000+0  78192-3 0  9990
2 31130  98.3594 215.0271 0087099 252.0078 107.1615 14.61182415925429
CBERS 2B                
1 32062U 07042A   24264.06298983  .00000943  00000+0  30630-3 0  9999
2 32062  98.3103 211.9534 0032740  88.0446  21.6709 14.40730965893262
COSMO-SKYMED 2          
1 32376U 07059A   24264.15696027  .00001601  00000+0  20762-3 0  9993
2 32376  97.8896  85.9211 0001433  86.4380 273.6997 14.82169119908019
CARTOSAT-2A             
1 32783U 08021A   24264.18041536  .00002309  00000+0  32120-3 0  9994
2 32783  97.8563 320.4445 0012128  17.3268 342.8355 14.78720683885047
CUTE-1.7+APD II (CO-65) 
1 32785U 08021C   24263.89838519  .00011329  00000+0  94713-3 0  9996
2 32785  97.7639 228.5879 0010871  19.7048 340.4593 14.98618383889728
COMPASS-1               
1 32787U 08021E   24263.52603179  .00028232  00000+0  14039-2 0  9993
2 32787  97.6301 240.1390 0005991 207.2473 152.8447 15.17578159892068
AAUSAT-II               
1 32788U 08021F   24263.74363650  .00053603  00000+0  21453-2 0  9993
2 32788  97.6015 244.7195 0006114 147.6750 212.4863 15.24863585892699
SEEDS II (CO-66)        
1 32791U 08021J   24263.66614300  .00020015  00000+0  13350-2 0  9997
2 32791  97.7008 234.5353 0005194  25.7154 334.4331 15.07075466890811
YUBILEINY (RS-30)       
1 32953U 08025A   24264.11901177  .00000023  00000+0  96377-4 0  9992
2 32953  82.5063  30.4251 0018701 256.4395 103.4602 12.43148305740923
FENGYUN 3A              
1 32958U 08026A   24263.86193673  .00000460  00000+0  23974-3 0  9990
2 32958  98.6114 208.2780 0009151 152.2409 207.9257 14.19196952845381
HUANJING 1A (HJ-1A)     
1 33320U 08041A   24264.20531259  .00003485  00000+0  45791-3 0  9997
2 33320  97.6345 266.5788 0021761  63.7448 296.5999 14.80678805864417
HUANJING 1B (HJ-1B)     
1 33321U 08041B   24264.19535081  .00002667  00000+0  34802-3 0  9995
2 33321  97.6282 271.0756 0039792 104.9098 255.6527 14.80769682864435
SHIJIAN-6 03A (SJ-6 03A)
1 33408U 08053A   24263.87674274  .00012911  00000+0  89665-3 0  9996
2 33408  97.8827 266.8484 0015402  31.7793 328.4359 15.05595514867174
SHIJIAN-6 03B (SJ-6 03B)
1 33409U 08053B   24264.22968667  .00004015  00000+0  32821-3 0  9997
2 33409  97.8934 263.3123 0017253  11.3511 348.8097 14.99846903867408
CHUANGXIN 1-02 (CX-1-02)
1 33434U 08056B   24264.20174176  .00000283  00000+0  12696-3 0  9991
2 33434  98.6712 283.9013 0013915 199.5034 160.5618 14.29877022828241
PRISM (HITOMI)          
1 33493U 09002B   24263.62623156  .00048585  00000+0  18205-2 0  9998
2 33493  98.1933 319.8147 0009650 275.6482  84.3654 15.27063670853412
STARS (KUKAI)           
1 33498U 09002G   24263.83540409  .00008980  00000+0  10058-2 0  9998
2 33498  98.1133 179.9948 0011895  97.0762 263.1806 14.87050391843735
KKS-1 (KISEKI)          
1 33499U 09002H   24263.79170648  .00003954  00000+0  53556-3 0  9995
2 33499  98.1276 166.4935 0008331 174.0379 186.0933 14.79517222842108
NOAA 19                 
1 33591U 09005A   24264.18273547  .00000457  00000+0  26892-3 0  9995
2 33591  99.0377 320.9479 0014117  28.5570 331.6372 14.13123502805047
YAOGAN-6                
1 34839U 09021A   24264.03070477  .00043469  00000+0  66017-3 0  9993
2 34839  97.1817 231.2132 0015168 174.6656 185.4763 15.54327771858155
UK-DMC 2                
1 35683U 09041C   24264.20315978  .00002555  00000+0  39772-3 0  9999
2 35683  97.7956  48.0348 0001332 100.5412 259.5947 14.73808745813009
METEOR-M 1              
1 35865U 09049A   24263.87190514  .00000416  00000+0  20482-3 0  9990
2 35865  98.6443 223.3688 0002445  19.6771 340.4501 14.22799135779037
OCEANSAT-2              
1 35931U 09051A   24264.16048387 -.00000044  00000+0 -43112-5 0  9996
2 35931  98.2554 303.7157 0016097 224.6858 135.3012 13.99498501790505
SWISSCUBE               
1 35932U 09051B   24263.64605384  .00003276  00000+0  69738-3 0  9993
2 35932  98.4553 148.8103 0008163  35.9610 324.2137 14.59670085796330
BEESAT-1                
1 35933U 09051C   24263.73885223  .00002953  00000+0  63451-3 0  9993
2 35933  98.4482 149.6865 0006685  48.4495 311.7276 14.59323950796413
ITUPSAT1                
1 35935U 09051E   24263.61645210  .00002635  00000+0  58065-3 0  9994
2 35935  98.4579 149.2939 0009052  52.5311 307.6709 14.58234961796028
DMSP 5D-3 F18 (USA 210) 
1 35951U 09057A   24264.21167745  .00000679  00000+0  37824-3 0  9993
2 35951  98.8251 238.3359 0009840 256.0441 103.9638 14.14278461769790
PROBA-2                 
1 36037U 09059B   24263.76312491  .00000851  00000+0  21193-3 0  9994
2 36037  98.2344  85.6244 0014509  83.4836 276.8012 14.54101666789151
YAOGAN-7                
1 36110U 09069A   24264.09466743  .00001694  00000+0  24944-3 0  9997
2 36110  98.0896 140.1707 0023866 284.8405  75.0161 14.76547677795891
XIWANG-1 (HOPE-1)       
1 36122U 09072B   24263.35269792 -.00000025  00000+0  49984-4 0  9997
2 36122 100.3050 219.1903 0006819 246.5905 113.4492 13.16408072709344
RADUGA-1M 2             
1 36358U 10002A   24263.68215427 -.00000191  00000+0  00000+0 0  9990
2 36358   1.9604  87.1816 0002717 125.8971 116.5815  1.00269508 43711
COSMOS 2463             
1 36519U 10017A   24263.68754372  .00000126  00000+0  12227-3 0  9997
2 36519  82.9653 356.6274 0037548  93.5846  19.1977 13.71580969720905
CARTOSAT-2B             
1 36795U 10035A   24264.14903332  .00002257  00000+0  31448-3 0  9990
2 36795  97.8503 319.9833 0013071  90.4504 269.8205 14.78659361766083
AISSAT 1                
1 36797U 10035C   24263.66568884  .00004892  00000+0  48627-3 0  9991
2 36797  98.1712 128.7056 0010187   5.7946 354.3388 14.92146091769259
TISAT 1                 
1 36799U 10035E   24263.76572037  .00017791  00000+0  12388-2 0  9995
2 36799  98.0753 157.4119 0001368 283.5193  76.5880 15.05517791771274
YAOGAN-10               
1 36834U 10038A   24264.19520003  .00001800  00000+0  22695-3 0  9999
2 36834  97.9466 280.8060 0001685  86.1787 346.9656 14.83217889763082
SHIJIAN-6 04B (SJ-6 04B)
1 37180U 10051B   24264.24404098  .00002961  00000+0  26419-3 0  9997
2 37180  97.8448 253.8542 0009300 273.3389  86.6768 14.96723937760620
FENGYUN 3B              
1 37214U 10059A   24264.20658749  .00000289  00000+0  17395-3 0  9997
2 37214  99.0498 293.6046 0022175 181.5738 254.9326 14.14569760717681
